[{"OBJECT_NAME":"TOMORROW-S4","OBJECT_ID":"2024-247K","EPOCH":"2026-03-09T12:47:35.836224","MEAN_MOTION":15.27717249,"ECCENTRICITY":0.00044343,"INCLINATION":44.9818,"RA_OF_ASC_NODE":117.9996,"ARG_OF_PERICENTER":210.4078,"MEAN_ANOMALY":149.6548,"EPHEMERIS_TYPE":0,"CLASSIFICATION_TYPE":"U","NORAD_CAT_ID":62386,"ELEMENT_SET_NO":999,"REV_AT_EPOCH":6770,"BSTAR":0.00046927249,"MEAN_MOTION_DOT":0.00012677,"MEAN_MOTION_DDOT":0},{"OBJECT_NAME":"STARLINK-33944","OBJECT_ID":"2025-117G","EPOCH":"2026-03-09T04:53:40.886880","MEAN_MOTION":15.30192314,"ECCENTRICITY":0.00012388,"INCLINATION":53.1606,"RA_OF_ASC_NODE":41.7035,"ARG_OF_PERICENTER":91.7874,"MEAN_ANOMALY":268.3269,"EPHEMERIS_TYPE":0,"CLASSIFICATION_TYPE":"U","NORAD_CAT_ID":64209,"ELEMENT_SET_NO":999,"REV_AT_EPOCH":4448,"BSTAR":0.0010320621,"MEAN_MOTION_DOT":0.00030325,"MEAN_MOTION_DDOT":0}]
